<?xml version="1.0" encoding="UTF-8"?>
<gpx version="1.1" creator="SENTIERO — traccia dimostrativa sintetica" xmlns="http://www.topografix.com/GPX/1/1">
  <metadata>
    <name>Anello del Monte Ascensione (demo)</name>
    <desc>Traccia sintetica generata per provare SENTIERO: non corrisponde a un sentiero reale e non va usata per navigare.</desc>
  </metadata>
  <trk>
    <name>Anello del Monte Ascensione (demo)</name>
    <type>mtb</type>
    <trkseg>
      <trkpt lat="42.8266007" lon="13.5731000">
        <ele>585.0</ele>
        <time>2025-05-18T08:30:00Z</time>
      </trkpt>
      <trkpt lat="42.8267276" lon="13.5734851">
        <ele>587.3</ele>
        <time>2025-05-18T08:30:31Z</time>
      </trkpt>
      <trkpt lat="42.8268471" lon="13.5738655">
        <ele>589.9</ele>
        <time>2025-05-18T08:31:01Z</time>
      </trkpt>
      <trkpt lat="42.8269595" lon="13.5742418">
        <ele>592.8</ele>
        <time>2025-05-18T08:31:32Z</time>
      </trkpt>
      <trkpt lat="42.8270652" lon="13.5746145">
        <ele>595.8</ele>
        <time>2025-05-18T08:32:02Z</time>
      </trkpt>
      <trkpt lat="42.8271645" lon="13.5749843">
        <ele>598.8</ele>
        <time>2025-05-18T08:32:31Z</time>
      </trkpt>
      <trkpt lat="42.8272579" lon="13.5753516">
        <ele>602.0</ele>
        <time>2025-05-18T08:33:00Z</time>
      </trkpt>
      <trkpt lat="42.8273460" lon="13.5757168">
        <ele>605.2</ele>
        <time>2025-05-18T08:33:29Z</time>
      </trkpt>
      <trkpt lat="42.8274293" lon="13.5760803">
        <ele>608.5</ele>
        <time>2025-05-18T08:33:58Z</time>
      </trkpt>
      <trkpt lat="42.8275086" lon="13.5764425">
        <ele>611.8</ele>
        <time>2025-05-18T08:34:26Z</time>
      </trkpt>
      <trkpt lat="42.8275844" lon="13.5768036">
        <ele>615.1</ele>
        <time>2025-05-18T08:34:55Z</time>
      </trkpt>
      <trkpt lat="42.8276575" lon="13.5771638">
        <ele>618.5</ele>
        <time>2025-05-18T08:35:23Z</time>
      </trkpt>
      <trkpt lat="42.8277287" lon="13.5775234">
        <ele>622.0</ele>
        <time>2025-05-18T08:35:51Z</time>
      </trkpt>
      <trkpt lat="42.8277986" lon="13.5778823">
        <ele>625.4</ele>
        <time>2025-05-18T08:36:19Z</time>
      </trkpt>
      <trkpt lat="42.8278682" lon="13.5782406">
        <ele>628.9</ele>
        <time>2025-05-18T08:36:47Z</time>
      </trkpt>
      <trkpt lat="42.8279381" lon="13.5785982">
        <ele>632.4</ele>
        <time>2025-05-18T08:37:15Z</time>
      </trkpt>
      <trkpt lat="42.8280092" lon="13.5789550">
        <ele>635.9</ele>
        <time>2025-05-18T08:37:43Z</time>
      </trkpt>
      <trkpt lat="42.8280823" lon="13.5793108">
        <ele>639.4</ele>
        <time>2025-05-18T08:38:11Z</time>
      </trkpt>
      <trkpt lat="42.8281581" lon="13.5796654">
        <ele>643.0</ele>
        <time>2025-05-18T08:38:39Z</time>
      </trkpt>
      <trkpt lat="42.8282375" lon="13.5800183">
        <ele>646.5</ele>
        <time>2025-05-18T08:39:07Z</time>
      </trkpt>
      <trkpt lat="42.8283211" lon="13.5803694">
        <ele>650.1</ele>
        <time>2025-05-18T08:39:35Z</time>
      </trkpt>
      <trkpt lat="42.8284097" lon="13.5807180">
        <ele>653.6</ele>
        <time>2025-05-18T08:40:02Z</time>
      </trkpt>
      <trkpt lat="42.8285040" lon="13.5810638">
        <ele>657.2</ele>
        <time>2025-05-18T08:40:30Z</time>
      </trkpt>
      <trkpt lat="42.8286045" lon="13.5814063">
        <ele>660.8</ele>
        <time>2025-05-18T08:40:58Z</time>
      </trkpt>
      <trkpt lat="42.8287119" lon="13.5817447">
        <ele>664.4</ele>
        <time>2025-05-18T08:41:26Z</time>
      </trkpt>
      <trkpt lat="42.8288267" lon="13.5820786">
        <ele>667.9</ele>
        <time>2025-05-18T08:41:54Z</time>
      </trkpt>
      <trkpt lat="42.8289494" lon="13.5824074">
        <ele>671.5</ele>
        <time>2025-05-18T08:42:22Z</time>
      </trkpt>
      <trkpt lat="42.8290805" lon="13.5827302">
        <ele>675.1</ele>
        <time>2025-05-18T08:42:50Z</time>
      </trkpt>
      <trkpt lat="42.8292202" lon="13.5830466">
        <ele>678.7</ele>
        <time>2025-05-18T08:43:18Z</time>
      </trkpt>
      <trkpt lat="42.8293690" lon="13.5833558">
        <ele>682.2</ele>
        <time>2025-05-18T08:43:46Z</time>
      </trkpt>
      <trkpt lat="42.8295271" lon="13.5836571">
        <ele>685.8</ele>
        <time>2025-05-18T08:44:14Z</time>
      </trkpt>
      <trkpt lat="42.8296946" lon="13.5839498">
        <ele>689.3</ele>
        <time>2025-05-18T08:44:42Z</time>
      </trkpt>
      <trkpt lat="42.8298716" lon="13.5842332">
        <ele>692.9</ele>
        <time>2025-05-18T08:45:10Z</time>
      </trkpt>
      <trkpt lat="42.8300583" lon="13.5845068">
        <ele>696.4</ele>
        <time>2025-05-18T08:45:38Z</time>
      </trkpt>
      <trkpt lat="42.8302546" lon="13.5847698">
        <ele>699.9</ele>
        <time>2025-05-18T08:46:06Z</time>
      </trkpt>
      <trkpt lat="42.8304605" lon="13.5850216">
        <ele>703.5</ele>
        <time>2025-05-18T08:46:35Z</time>
      </trkpt>
      <trkpt lat="42.8306757" lon="13.5852617">
        <ele>707.0</ele>
        <time>2025-05-18T08:47:03Z</time>
      </trkpt>
      <trkpt lat="42.8309002" lon="13.5854895">
        <ele>710.5</ele>
        <time>2025-05-18T08:47:32Z</time>
      </trkpt>
      <trkpt lat="42.8311336" lon="13.5857045">
        <ele>714.0</ele>
        <time>2025-05-18T08:48:01Z</time>
      </trkpt>
      <trkpt lat="42.8313756" lon="13.5859063">
        <ele>717.4</ele>
        <time>2025-05-18T08:48:30Z</time>
      </trkpt>
      <trkpt lat="42.8316259" lon="13.5860945">
        <ele>720.9</ele>
        <time>2025-05-18T08:48:59Z</time>
      </trkpt>
      <trkpt lat="42.8318840" lon="13.5862686">
        <ele>724.3</ele>
        <time>2025-05-18T08:49:28Z</time>
      </trkpt>
      <trkpt lat="42.8321495" lon="13.5864286">
        <ele>727.8</ele>
        <time>2025-05-18T08:49:58Z</time>
      </trkpt>
      <trkpt lat="42.8324219" lon="13.5865740">
        <ele>731.2</ele>
        <time>2025-05-18T08:50:28Z</time>
      </trkpt>
      <trkpt lat="42.8327006" lon="13.5867048">
        <ele>734.6</ele>
        <time>2025-05-18T08:50:58Z</time>
      </trkpt>
      <trkpt lat="42.8329851" lon="13.5868209">
        <ele>738.0</ele>
        <time>2025-05-18T08:51:28Z</time>
      </trkpt>
      <trkpt lat="42.8332748" lon="13.5869223">
        <ele>741.4</ele>
        <time>2025-05-18T08:51:58Z</time>
      </trkpt>
      <trkpt lat="42.8335690" lon="13.5870090">
        <ele>744.7</ele>
        <time>2025-05-18T08:52:29Z</time>
      </trkpt>
      <trkpt lat="42.8338671" lon="13.5870811">
        <ele>748.1</ele>
        <time>2025-05-18T08:53:00Z</time>
      </trkpt>
      <trkpt lat="42.8341684" lon="13.5871387">
        <ele>751.4</ele>
        <time>2025-05-18T08:53:30Z</time>
      </trkpt>
      <trkpt lat="42.8344723" lon="13.5871823">
        <ele>754.8</ele>
        <time>2025-05-18T08:54:01Z</time>
      </trkpt>
      <trkpt lat="42.8347782" lon="13.5872120">
        <ele>758.1</ele>
        <time>2025-05-18T08:54:32Z</time>
      </trkpt>
      <trkpt lat="42.8350853" lon="13.5872282">
        <ele>761.4</ele>
        <time>2025-05-18T08:55:03Z</time>
      </trkpt>
      <trkpt lat="42.8353929" lon="13.5872313">
        <ele>764.6</ele>
        <time>2025-05-18T08:55:34Z</time>
      </trkpt>
      <trkpt lat="42.8357005" lon="13.5872219">
        <ele>767.9</ele>
        <time>2025-05-18T08:56:05Z</time>
      </trkpt>
      <trkpt lat="42.8360075" lon="13.5872005">
        <ele>771.1</ele>
        <time>2025-05-18T08:56:37Z</time>
      </trkpt>
      <trkpt lat="42.8363131" lon="13.5871676">
        <ele>774.4</ele>
        <time>2025-05-18T08:57:08Z</time>
      </trkpt>
      <trkpt lat="42.8366168" lon="13.5871239">
        <ele>777.6</ele>
        <time>2025-05-18T08:57:38Z</time>
      </trkpt>
      <trkpt lat="42.8369180" lon="13.5870700">
        <ele>780.8</ele>
        <time>2025-05-18T08:58:09Z</time>
      </trkpt>
      <trkpt lat="42.8372162" lon="13.5870067">
        <ele>784.0</ele>
        <time>2025-05-18T08:58:40Z</time>
      </trkpt>
      <trkpt lat="42.8375109" lon="13.5869346">
        <ele>787.2</ele>
        <time>2025-05-18T08:59:10Z</time>
      </trkpt>
      <trkpt lat="42.8378017" lon="13.5868545">
        <ele>790.4</ele>
        <time>2025-05-18T08:59:40Z</time>
      </trkpt>
      <trkpt lat="42.8380880" lon="13.5867673">
        <ele>793.5</ele>
        <time>2025-05-18T09:00:10Z</time>
      </trkpt>
      <trkpt lat="42.8383695" lon="13.5866735">
        <ele>796.7</ele>
        <time>2025-05-18T09:00:40Z</time>
      </trkpt>
      <trkpt lat="42.8386458" lon="13.5865741">
        <ele>799.8</ele>
        <time>2025-05-18T09:01:09Z</time>
      </trkpt>
      <trkpt lat="42.8389167" lon="13.5864698">
        <ele>802.9</ele>
        <time>2025-05-18T09:01:38Z</time>
      </trkpt>
      <trkpt lat="42.8391818" lon="13.5863615">
        <ele>806.1</ele>
        <time>2025-05-18T09:02:06Z</time>
      </trkpt>
      <trkpt lat="42.8394410" lon="13.5862497">
        <ele>809.2</ele>
        <time>2025-05-18T09:02:34Z</time>
      </trkpt>
      <trkpt lat="42.8396939" lon="13.5861354">
        <ele>812.3</ele>
        <time>2025-05-18T09:03:02Z</time>
      </trkpt>
      <trkpt lat="42.8399406" lon="13.5860191">
        <ele>815.3</ele>
        <time>2025-05-18T09:03:29Z</time>
      </trkpt>
      <trkpt lat="42.8401809" lon="13.5859017">
        <ele>818.4</ele>
        <time>2025-05-18T09:03:55Z</time>
      </trkpt>
      <trkpt lat="42.8404148" lon="13.5857838">
        <ele>821.5</ele>
        <time>2025-05-18T09:04:21Z</time>
      </trkpt>
      <trkpt lat="42.8406421" lon="13.5856660">
        <ele>824.6</ele>
        <time>2025-05-18T09:04:47Z</time>
      </trkpt>
      <trkpt lat="42.8408630" lon="13.5855490">
        <ele>827.6</ele>
        <time>2025-05-18T09:05:12Z</time>
      </trkpt>
      <trkpt lat="42.8410775" lon="13.5854332">
        <ele>830.7</ele>
        <time>2025-05-18T09:05:37Z</time>
      </trkpt>
      <trkpt lat="42.8412856" lon="13.5853191">
        <ele>833.7</ele>
        <time>2025-05-18T09:06:00Z</time>
      </trkpt>
      <trkpt lat="42.8414875" lon="13.5852073">
        <ele>836.7</ele>
        <time>2025-05-18T09:06:24Z</time>
      </trkpt>
      <trkpt lat="42.8416834" lon="13.5850981">
        <ele>839.8</ele>
        <time>2025-05-18T09:06:47Z</time>
      </trkpt>
      <trkpt lat="42.8418733" lon="13.5849919">
        <ele>842.8</ele>
        <time>2025-05-18T09:07:09Z</time>
      </trkpt>
      <trkpt lat="42.8420575" lon="13.5848890">
        <ele>845.8</ele>
        <time>2025-05-18T09:07:31Z</time>
      </trkpt>
      <trkpt lat="42.8422362" lon="13.5847896">
        <ele>848.8</ele>
        <time>2025-05-18T09:07:52Z</time>
      </trkpt>
      <trkpt lat="42.8424097" lon="13.5846939">
        <ele>851.8</ele>
        <time>2025-05-18T09:08:13Z</time>
      </trkpt>
      <trkpt lat="42.8425781" lon="13.5846021">
        <ele>854.8</ele>
        <time>2025-05-18T09:08:33Z</time>
      </trkpt>
      <trkpt lat="42.8427417" lon="13.5845142">
        <ele>857.9</ele>
        <time>2025-05-18T09:08:53Z</time>
      </trkpt>
      <trkpt lat="42.8429008" lon="13.5844302">
        <ele>860.9</ele>
        <time>2025-05-18T09:09:12Z</time>
      </trkpt>
      <trkpt lat="42.8430557" lon="13.5843502">
        <ele>863.9</ele>
        <time>2025-05-18T09:09:31Z</time>
      </trkpt>
      <trkpt lat="42.8432065" lon="13.5842739">
        <ele>866.9</ele>
        <time>2025-05-18T09:09:49Z</time>
      </trkpt>
      <trkpt lat="42.8433537" lon="13.5842014">
        <ele>869.9</ele>
        <time>2025-05-18T09:10:07Z</time>
      </trkpt>
      <trkpt lat="42.8434973" lon="13.5841324">
        <ele>872.8</ele>
        <time>2025-05-18T09:10:25Z</time>
      </trkpt>
      <trkpt lat="42.8436378" lon="13.5840668">
        <ele>875.8</ele>
        <time>2025-05-18T09:10:43Z</time>
      </trkpt>
      <trkpt lat="42.8437752" lon="13.5840042">
        <ele>878.8</ele>
        <time>2025-05-18T09:11:00Z</time>
      </trkpt>
      <trkpt lat="42.8439100" lon="13.5839443">
        <ele>881.8</ele>
        <time>2025-05-18T09:11:16Z</time>
      </trkpt>
      <trkpt lat="42.8440422" lon="13.5838869">
        <ele>884.8</ele>
        <time>2025-05-18T09:11:33Z</time>
      </trkpt>
      <trkpt lat="42.8441721" lon="13.5838316">
        <ele>887.8</ele>
        <time>2025-05-18T09:11:49Z</time>
      </trkpt>
      <trkpt lat="42.8442999" lon="13.5837780">
        <ele>890.8</ele>
        <time>2025-05-18T09:12:05Z</time>
      </trkpt>
      <trkpt lat="42.8444257" lon="13.5837257">
        <ele>893.8</ele>
        <time>2025-05-18T09:12:21Z</time>
      </trkpt>
      <trkpt lat="42.8445498" lon="13.5836743">
        <ele>896.8</ele>
        <time>2025-05-18T09:12:37Z</time>
      </trkpt>
      <trkpt lat="42.8446722" lon="13.5836233">
        <ele>899.8</ele>
        <time>2025-05-18T09:12:53Z</time>
      </trkpt>
      <trkpt lat="42.8447930" lon="13.5835723">
        <ele>902.8</ele>
        <time>2025-05-18T09:13:08Z</time>
      </trkpt>
      <trkpt lat="42.8449123" lon="13.5835209">
        <ele>905.8</ele>
        <time>2025-05-18T09:13:24Z</time>
      </trkpt>
      <trkpt lat="42.8450303" lon="13.5834686">
        <ele>908.8</ele>
        <time>2025-05-18T09:13:39Z</time>
      </trkpt>
      <trkpt lat="42.8451469" lon="13.5834151">
        <ele>911.8</ele>
        <time>2025-05-18T09:13:54Z</time>
      </trkpt>
      <trkpt lat="42.8452622" lon="13.5833597">
        <ele>914.7</ele>
        <time>2025-05-18T09:14:09Z</time>
      </trkpt>
      <trkpt lat="42.8453761" lon="13.5833022">
        <ele>917.7</ele>
        <time>2025-05-18T09:14:25Z</time>
      </trkpt>
      <trkpt lat="42.8454887" lon="13.5832422">
        <ele>920.7</ele>
        <time>2025-05-18T09:14:40Z</time>
      </trkpt>
      <trkpt lat="42.8456000" lon="13.5831792">
        <ele>923.7</ele>
        <time>2025-05-18T09:14:55Z</time>
      </trkpt>
      <trkpt lat="42.8457098" lon="13.5831129">
        <ele>926.7</ele>
        <time>2025-05-18T09:15:10Z</time>
      </trkpt>
      <trkpt lat="42.8458182" lon="13.5830430">
        <ele>929.7</ele>
        <time>2025-05-18T09:15:24Z</time>
      </trkpt>
      <trkpt lat="42.8459250" lon="13.5829691">
        <ele>932.7</ele>
        <time>2025-05-18T09:15:39Z</time>
      </trkpt>
      <trkpt lat="42.8460301" lon="13.5828910">
        <ele>935.7</ele>
        <time>2025-05-18T09:15:54Z</time>
      </trkpt>
      <trkpt lat="42.8461334" lon="13.5828085">
        <ele>938.7</ele>
        <time>2025-05-18T09:16:09Z</time>
      </trkpt>
      <trkpt lat="42.8462349" lon="13.5827213">
        <ele>941.6</ele>
        <time>2025-05-18T09:16:24Z</time>
      </trkpt>
      <trkpt lat="42.8463343" lon="13.5826292">
        <ele>944.6</ele>
        <time>2025-05-18T09:16:39Z</time>
      </trkpt>
      <trkpt lat="42.8464316" lon="13.5825322">
        <ele>947.6</ele>
        <time>2025-05-18T09:16:54Z</time>
      </trkpt>
      <trkpt lat="42.8465266" lon="13.5824301">
        <ele>950.6</ele>
        <time>2025-05-18T09:17:09Z</time>
      </trkpt>
      <trkpt lat="42.8466192" lon="13.5823229">
        <ele>953.5</ele>
        <time>2025-05-18T09:17:24Z</time>
      </trkpt>
      <trkpt lat="42.8467092" lon="13.5822105">
        <ele>956.5</ele>
        <time>2025-05-18T09:17:39Z</time>
      </trkpt>
      <trkpt lat="42.8467966" lon="13.5820930">
        <ele>959.5</ele>
        <time>2025-05-18T09:17:55Z</time>
      </trkpt>
      <trkpt lat="42.8468810" lon="13.5819703">
        <ele>962.4</ele>
        <time>2025-05-18T09:18:10Z</time>
      </trkpt>
      <trkpt lat="42.8469625" lon="13.5818427">
        <ele>965.3</ele>
        <time>2025-05-18T09:18:25Z</time>
      </trkpt>
      <trkpt lat="42.8470409" lon="13.5817101">
        <ele>968.3</ele>
        <time>2025-05-18T09:18:41Z</time>
      </trkpt>
      <trkpt lat="42.8471160" lon="13.5815729">
        <ele>971.2</ele>
        <time>2025-05-18T09:18:56Z</time>
      </trkpt>
      <trkpt lat="42.8471878" lon="13.5814310">
        <ele>974.1</ele>
        <time>2025-05-18T09:19:12Z</time>
      </trkpt>
      <trkpt lat="42.8472562" lon="13.5812849">
        <ele>977.0</ele>
        <time>2025-05-18T09:19:27Z</time>
      </trkpt>
      <trkpt lat="42.8473210" lon="13.5811346">
        <ele>979.9</ele>
        <time>2025-05-18T09:19:43Z</time>
      </trkpt>
      <trkpt lat="42.8473823" lon="13.5809806">
        <ele>982.8</ele>
        <time>2025-05-18T09:19:58Z</time>
      </trkpt>
      <trkpt lat="42.8474398" lon="13.5808230">
        <ele>985.7</ele>
        <time>2025-05-18T09:20:14Z</time>
      </trkpt>
      <trkpt lat="42.8474937" lon="13.5806621">
        <ele>988.5</ele>
        <time>2025-05-18T09:20:30Z</time>
      </trkpt>
      <trkpt lat="42.8475438" lon="13.5804984">
        <ele>991.4</ele>
        <time>2025-05-18T09:20:46Z</time>
      </trkpt>
      <trkpt lat="42.8475901" lon="13.5803322">
        <ele>994.2</ele>
        <time>2025-05-18T09:21:02Z</time>
      </trkpt>
      <trkpt lat="42.8476326" lon="13.5801637">
        <ele>997.0</ele>
        <time>2025-05-18T09:21:17Z</time>
      </trkpt>
      <trkpt lat="42.8476714" lon="13.5799935">
        <ele>999.8</ele>
        <time>2025-05-18T09:21:33Z</time>
      </trkpt>
      <trkpt lat="42.8477065" lon="13.5798218">
        <ele>1002.6</ele>
        <time>2025-05-18T09:21:49Z</time>
      </trkpt>
      <trkpt lat="42.8477378" lon="13.5796490">
        <ele>1005.3</ele>
        <time>2025-05-18T09:22:05Z</time>
      </trkpt>
      <trkpt lat="42.8477656" lon="13.5794755">
        <ele>1008.1</ele>
        <time>2025-05-18T09:22:21Z</time>
      </trkpt>
      <trkpt lat="42.8477897" lon="13.5793017">
        <ele>1010.8</ele>
        <time>2025-05-18T09:22:37Z</time>
      </trkpt>
      <trkpt lat="42.8478105" lon="13.5791280">
        <ele>1013.5</ele>
        <time>2025-05-18T09:22:52Z</time>
      </trkpt>
      <trkpt lat="42.8478278" lon="13.5789547">
        <ele>1016.2</ele>
        <time>2025-05-18T09:23:08Z</time>
      </trkpt>
      <trkpt lat="42.8478419" lon="13.5787822">
        <ele>1018.8</ele>
        <time>2025-05-18T09:23:24Z</time>
      </trkpt>
      <trkpt lat="42.8478529" lon="13.5786108">
        <ele>1021.4</ele>
        <time>2025-05-18T09:23:39Z</time>
      </trkpt>
      <trkpt lat="42.8478608" lon="13.5784409">
        <ele>1024.0</ele>
        <time>2025-05-18T09:23:55Z</time>
      </trkpt>
      <trkpt lat="42.8478660" lon="13.5782728">
        <ele>1026.6</ele>
        <time>2025-05-18T09:24:10Z</time>
      </trkpt>
      <trkpt lat="42.8478684" lon="13.5781067">
        <ele>1029.1</ele>
        <time>2025-05-18T09:24:25Z</time>
      </trkpt>
      <trkpt lat="42.8478684" lon="13.5779430">
        <ele>1031.7</ele>
        <time>2025-05-18T09:24:40Z</time>
      </trkpt>
      <trkpt lat="42.8478659" lon="13.5777820">
        <ele>1034.1</ele>
        <time>2025-05-18T09:24:55Z</time>
      </trkpt>
      <trkpt lat="42.8478613" lon="13.5776238">
        <ele>1036.6</ele>
        <time>2025-05-18T09:25:09Z</time>
      </trkpt>
      <trkpt lat="42.8478547" lon="13.5774687">
        <ele>1039.0</ele>
        <time>2025-05-18T09:25:24Z</time>
      </trkpt>
      <trkpt lat="42.8478463" lon="13.5773169">
        <ele>1041.4</ele>
        <time>2025-05-18T09:25:38Z</time>
      </trkpt>
      <trkpt lat="42.8478362" lon="13.5771686">
        <ele>1043.8</ele>
        <time>2025-05-18T09:25:52Z</time>
      </trkpt>
      <trkpt lat="42.8478247" lon="13.5770239">
        <ele>1046.1</ele>
        <time>2025-05-18T09:26:06Z</time>
      </trkpt>
      <trkpt lat="42.8478119" lon="13.5768830">
        <ele>1048.4</ele>
        <time>2025-05-18T09:26:19Z</time>
      </trkpt>
      <trkpt lat="42.8477980" lon="13.5767459">
        <ele>1050.6</ele>
        <time>2025-05-18T09:26:33Z</time>
      </trkpt>
      <trkpt lat="42.8477831" lon="13.5766128">
        <ele>1052.8</ele>
        <time>2025-05-18T09:26:46Z</time>
      </trkpt>
      <trkpt lat="42.8477675" lon="13.5764838">
        <ele>1055.0</ele>
        <time>2025-05-18T09:26:59Z</time>
      </trkpt>
      <trkpt lat="42.8477513" lon="13.5763588">
        <ele>1057.1</ele>
        <time>2025-05-18T09:27:11Z</time>
      </trkpt>
      <trkpt lat="42.8477347" lon="13.5762378">
        <ele>1059.2</ele>
        <time>2025-05-18T09:27:24Z</time>
      </trkpt>
      <trkpt lat="42.8477177" lon="13.5761210">
        <ele>1061.3</ele>
        <time>2025-05-18T09:27:36Z</time>
      </trkpt>
      <trkpt lat="42.8477007" lon="13.5760083">
        <ele>1063.3</ele>
        <time>2025-05-18T09:27:48Z</time>
      </trkpt>
      <trkpt lat="42.8476835" lon="13.5758996">
        <ele>1065.3</ele>
        <time>2025-05-18T09:28:00Z</time>
      </trkpt>
      <trkpt lat="42.8476666" lon="13.5757948">
        <ele>1067.2</ele>
        <time>2025-05-18T09:28:11Z</time>
      </trkpt>
      <trkpt lat="42.8476498" lon="13.5756940">
        <ele>1069.1</ele>
        <time>2025-05-18T09:28:22Z</time>
      </trkpt>
      <trkpt lat="42.8476333" lon="13.5755971">
        <ele>1070.9</ele>
        <time>2025-05-18T09:28:33Z</time>
      </trkpt>
      <trkpt lat="42.8476173" lon="13.5755039">
        <ele>1072.7</ele>
        <time>2025-05-18T09:28:44Z</time>
      </trkpt>
      <trkpt lat="42.8476018" lon="13.5754143">
        <ele>1074.5</ele>
        <time>2025-05-18T09:28:54Z</time>
      </trkpt>
      <trkpt lat="42.8475869" lon="13.5753282">
        <ele>1076.2</ele>
        <time>2025-05-18T09:29:04Z</time>
      </trkpt>
      <trkpt lat="42.8475726" lon="13.5752456">
        <ele>1077.8</ele>
        <time>2025-05-18T09:29:14Z</time>
      </trkpt>
      <trkpt lat="42.8475591" lon="13.5751662">
        <ele>1079.4</ele>
        <time>2025-05-18T09:29:24Z</time>
      </trkpt>
      <trkpt lat="42.8475462" lon="13.5750900">
        <ele>1081.0</ele>
        <time>2025-05-18T09:29:34Z</time>
      </trkpt>
      <trkpt lat="42.8475342" lon="13.5750167">
        <ele>1082.5</ele>
        <time>2025-05-18T09:29:43Z</time>
      </trkpt>
      <trkpt lat="42.8475230" lon="13.5749463">
        <ele>1084.0</ele>
        <time>2025-05-18T09:29:52Z</time>
      </trkpt>
      <trkpt lat="42.8475126" lon="13.5748785">
        <ele>1085.4</ele>
        <time>2025-05-18T09:30:01Z</time>
      </trkpt>
      <trkpt lat="42.8475030" lon="13.5748133">
        <ele>1086.8</ele>
        <time>2025-05-18T09:30:10Z</time>
      </trkpt>
      <trkpt lat="42.8474943" lon="13.5747505">
        <ele>1088.1</ele>
        <time>2025-05-18T09:30:19Z</time>
      </trkpt>
      <trkpt lat="42.8474864" lon="13.5746900">
        <ele>1089.4</ele>
        <time>2025-05-18T09:30:27Z</time>
      </trkpt>
      <trkpt lat="42.8474794" lon="13.5746315">
        <ele>1090.6</ele>
        <time>2025-05-18T09:30:36Z</time>
      </trkpt>
      <trkpt lat="42.8474731" lon="13.5745750">
        <ele>1091.8</ele>
        <time>2025-05-18T09:30:44Z</time>
      </trkpt>
      <trkpt lat="42.8474676" lon="13.5745203">
        <ele>1092.9</ele>
        <time>2025-05-18T09:30:52Z</time>
      </trkpt>
      <trkpt lat="42.8474629" lon="13.5744673">
        <ele>1093.9</ele>
        <time>2025-05-18T09:31:00Z</time>
      </trkpt>
      <trkpt lat="42.8474589" lon="13.5744158">
        <ele>1095.0</ele>
        <time>2025-05-18T09:31:08Z</time>
      </trkpt>
      <trkpt lat="42.8474556" lon="13.5743658">
        <ele>1095.9</ele>
        <time>2025-05-18T09:31:16Z</time>
      </trkpt>
      <trkpt lat="42.8474529" lon="13.5743170">
        <ele>1096.9</ele>
        <time>2025-05-18T09:31:23Z</time>
      </trkpt>
      <trkpt lat="42.8474508" lon="13.5742694">
        <ele>1097.7</ele>
        <time>2025-05-18T09:31:31Z</time>
      </trkpt>
      <trkpt lat="42.8474493" lon="13.5742230">
        <ele>1098.6</ele>
        <time>2025-05-18T09:31:39Z</time>
      </trkpt>
      <trkpt lat="42.8474482" lon="13.5741775">
        <ele>1099.3</ele>
        <time>2025-05-18T09:31:46Z</time>
      </trkpt>
      <trkpt lat="42.8474477" lon="13.5741328">
        <ele>1100.1</ele>
        <time>2025-05-18T09:31:54Z</time>
      </trkpt>
      <trkpt lat="42.8474476" lon="13.5740890">
        <ele>1100.7</ele>
        <time>2025-05-18T09:32:01Z</time>
      </trkpt>
      <trkpt lat="42.8474478" lon="13.5740459">
        <ele>1101.4</ele>
        <time>2025-05-18T09:32:08Z</time>
      </trkpt>
      <trkpt lat="42.8474484" lon="13.5740034">
        <ele>1101.9</ele>
        <time>2025-05-18T09:32:16Z</time>
      </trkpt>
      <trkpt lat="42.8474493" lon="13.5739615">
        <ele>1102.5</ele>
        <time>2025-05-18T09:32:23Z</time>
      </trkpt>
      <trkpt lat="42.8474505" lon="13.5739200">
        <ele>1103.0</ele>
        <time>2025-05-18T09:32:30Z</time>
      </trkpt>
      <trkpt lat="42.8474518" lon="13.5738791">
        <ele>1103.4</ele>
        <time>2025-05-18T09:32:37Z</time>
      </trkpt>
      <trkpt lat="42.8474533" lon="13.5738385">
        <ele>1103.8</ele>
        <time>2025-05-18T09:32:45Z</time>
      </trkpt>
      <trkpt lat="42.8474549" lon="13.5737982">
        <ele>1104.1</ele>
        <time>2025-05-18T09:32:52Z</time>
      </trkpt>
      <trkpt lat="42.8474567" lon="13.5737583">
        <ele>1104.4</ele>
        <time>2025-05-18T09:32:59Z</time>
      </trkpt>
      <trkpt lat="42.8474585" lon="13.5737186">
        <ele>1104.7</ele>
        <time>2025-05-18T09:33:06Z</time>
      </trkpt>
      <trkpt lat="42.8474603" lon="13.5736791">
        <ele>1104.9</ele>
        <time>2025-05-18T09:33:13Z</time>
      </trkpt>
      <trkpt lat="42.8474621" lon="13.5736398">
        <ele>1105.0</ele>
        <time>2025-05-18T09:33:20Z</time>
      </trkpt>
      <trkpt lat="42.8474640" lon="13.5736007">
        <ele>1105.1</ele>
        <time>2025-05-18T09:33:28Z</time>
      </trkpt>
      <trkpt lat="42.8474657" lon="13.5735618">
        <ele>1105.2</ele>
        <time>2025-05-18T09:33:35Z</time>
      </trkpt>
      <trkpt lat="42.8474674" lon="13.5735230">
        <ele>1105.3</ele>
        <time>2025-05-18T09:33:42Z</time>
      </trkpt>
      <trkpt lat="42.8474690" lon="13.5734842">
        <ele>1105.2</ele>
        <time>2025-05-18T09:33:49Z</time>
      </trkpt>
      <trkpt lat="42.8474705" lon="13.5734456">
        <ele>1105.2</ele>
        <time>2025-05-18T09:33:56Z</time>
      </trkpt>
      <trkpt lat="42.8474719" lon="13.5734070">
        <ele>1105.1</ele>
        <time>2025-05-18T09:34:03Z</time>
      </trkpt>
      <trkpt lat="42.8474732" lon="13.5733685">
        <ele>1105.0</ele>
        <time>2025-05-18T09:34:10Z</time>
      </trkpt>
      <trkpt lat="42.8474743" lon="13.5733301">
        <ele>1104.8</ele>
        <time>2025-05-18T09:34:17Z</time>
      </trkpt>
      <trkpt lat="42.8474752" lon="13.5732917">
        <ele>1104.6</ele>
        <time>2025-05-18T09:34:24Z</time>
      </trkpt>
      <trkpt lat="42.8474760" lon="13.5732533">
        <ele>1104.3</ele>
        <time>2025-05-18T09:34:31Z</time>
      </trkpt>
      <trkpt lat="42.8474767" lon="13.5732150">
        <ele>1104.1</ele>
        <time>2025-05-18T09:34:38Z</time>
      </trkpt>
      <trkpt lat="42.8474771" lon="13.5731766">
        <ele>1103.7</ele>
        <time>2025-05-18T09:34:45Z</time>
      </trkpt>
      <trkpt lat="42.8474774" lon="13.5731383">
        <ele>1103.4</ele>
        <time>2025-05-18T09:34:52Z</time>
      </trkpt>
      <trkpt lat="42.8474775" lon="13.5731000">
        <ele>1103.0</ele>
        <time>2025-05-18T09:35:00Z</time>
      </trkpt>
      <trkpt lat="42.8474774" lon="13.5730617">
        <ele>1102.6</ele>
        <time>2025-05-18T09:35:07Z</time>
      </trkpt>
      <trkpt lat="42.8474771" lon="13.5730234">
        <ele>1102.1</ele>
        <time>2025-05-18T09:35:14Z</time>
      </trkpt>
      <trkpt lat="42.8474767" lon="13.5729850">
        <ele>1101.6</ele>
        <time>2025-05-18T09:35:21Z</time>
      </trkpt>
      <trkpt lat="42.8474760" lon="13.5729467">
        <ele>1101.1</ele>
        <time>2025-05-18T09:35:28Z</time>
      </trkpt>
      <trkpt lat="42.8474752" lon="13.5729083">
        <ele>1100.6</ele>
        <time>2025-05-18T09:35:35Z</time>
      </trkpt>
      <trkpt lat="42.8474743" lon="13.5728699">
        <ele>1100.0</ele>
        <time>2025-05-18T09:35:42Z</time>
      </trkpt>
      <trkpt lat="42.8474732" lon="13.5728315">
        <ele>1099.4</ele>
        <time>2025-05-18T09:35:49Z</time>
      </trkpt>
      <trkpt lat="42.8474719" lon="13.5727930">
        <ele>1098.8</ele>
        <time>2025-05-18T09:35:56Z</time>
      </trkpt>
      <trkpt lat="42.8474705" lon="13.5727544">
        <ele>1098.1</ele>
        <time>2025-05-18T09:36:03Z</time>
      </trkpt>
      <trkpt lat="42.8474690" lon="13.5727158">
        <ele>1097.4</ele>
        <time>2025-05-18T09:36:10Z</time>
      </trkpt>
      <trkpt lat="42.8474674" lon="13.5726770">
        <ele>1096.7</ele>
        <time>2025-05-18T09:36:17Z</time>
      </trkpt>
      <trkpt lat="42.8474657" lon="13.5726382">
        <ele>1096.0</ele>
        <time>2025-05-18T09:36:24Z</time>
      </trkpt>
      <trkpt lat="42.8474640" lon="13.5725993">
        <ele>1095.2</ele>
        <time>2025-05-18T09:36:31Z</time>
      </trkpt>
      <trkpt lat="42.8474621" lon="13.5725602">
        <ele>1094.4</ele>
        <time>2025-05-18T09:36:39Z</time>
      </trkpt>
      <trkpt lat="42.8474603" lon="13.5725209">
        <ele>1093.6</ele>
        <time>2025-05-18T09:36:46Z</time>
      </trkpt>
      <trkpt lat="42.8474585" lon="13.5724814">
        <ele>1092.8</ele>
        <time>2025-05-18T09:36:53Z</time>
      </trkpt>
      <trkpt lat="42.8474567" lon="13.5724417">
        <ele>1092.0</ele>
        <time>2025-05-18T09:37:00Z</time>
      </trkpt>
      <trkpt lat="42.8474549" lon="13.5724018">
        <ele>1091.1</ele>
        <time>2025-05-18T09:37:07Z</time>
      </trkpt>
      <trkpt lat="42.8474533" lon="13.5723615">
        <ele>1090.2</ele>
        <time>2025-05-18T09:37:14Z</time>
      </trkpt>
      <trkpt lat="42.8474518" lon="13.5723209">
        <ele>1089.3</ele>
        <time>2025-05-18T09:37:22Z</time>
      </trkpt>
      <trkpt lat="42.8474505" lon="13.5722800">
        <ele>1088.4</ele>
        <time>2025-05-18T09:37:29Z</time>
      </trkpt>
      <trkpt lat="42.8474493" lon="13.5722385">
        <ele>1087.4</ele>
        <time>2025-05-18T09:37:36Z</time>
      </trkpt>
      <trkpt lat="42.8474484" lon="13.5721966">
        <ele>1086.5</ele>
        <time>2025-05-18T09:37:43Z</time>
      </trkpt>
      <trkpt lat="42.8474478" lon="13.5721541">
        <ele>1085.5</ele>
        <time>2025-05-18T09:37:51Z</time>
      </trkpt>
      <trkpt lat="42.8474476" lon="13.5721110">
        <ele>1084.5</ele>
        <time>2025-05-18T09:37:58Z</time>
      </trkpt>
      <trkpt lat="42.8474477" lon="13.5720672">
        <ele>1083.5</ele>
        <time>2025-05-18T09:38:05Z</time>
      </trkpt>
      <trkpt lat="42.8474482" lon="13.5720225">
        <ele>1082.5</ele>
        <time>2025-05-18T09:38:13Z</time>
      </trkpt>
      <trkpt lat="42.8474493" lon="13.5719770">
        <ele>1081.4</ele>
        <time>2025-05-18T09:38:20Z</time>
      </trkpt>
      <trkpt lat="42.8474508" lon="13.5719306">
        <ele>1080.4</ele>
        <time>2025-05-18T09:38:28Z</time>
      </trkpt>
      <trkpt lat="42.8474529" lon="13.5718830">
        <ele>1079.3</ele>
        <time>2025-05-18T09:38:36Z</time>
      </trkpt>
      <trkpt lat="42.8474556" lon="13.5718342">
        <ele>1078.2</ele>
        <time>2025-05-18T09:38:43Z</time>
      </trkpt>
      <trkpt lat="42.8474589" lon="13.5717842">
        <ele>1077.1</ele>
        <time>2025-05-18T09:38:51Z</time>
      </trkpt>
      <trkpt lat="42.8474629" lon="13.5717327">
        <ele>1076.0</ele>
        <time>2025-05-18T09:38:59Z</time>
      </trkpt>
      <trkpt lat="42.8474676" lon="13.5716797">
        <ele>1074.9</ele>
        <time>2025-05-18T09:39:07Z</time>
      </trkpt>
      <trkpt lat="42.8474731" lon="13.5716250">
        <ele>1073.8</ele>
        <time>2025-05-18T09:39:15Z</time>
      </trkpt>
      <trkpt lat="42.8474794" lon="13.5715685">
        <ele>1072.6</ele>
        <time>2025-05-18T09:39:23Z</time>
      </trkpt>
      <trkpt lat="42.8474864" lon="13.5715100">
        <ele>1071.4</ele>
        <time>2025-05-18T09:39:32Z</time>
      </trkpt>
      <trkpt lat="42.8474943" lon="13.5714495">
        <ele>1070.3</ele>
        <time>2025-05-18T09:39:40Z</time>
      </trkpt>
      <trkpt lat="42.8475030" lon="13.5713867">
        <ele>1069.1</ele>
        <time>2025-05-18T09:39:49Z</time>
      </trkpt>
      <trkpt lat="42.8475126" lon="13.5713215">
        <ele>1067.8</ele>
        <time>2025-05-18T09:39:58Z</time>
      </trkpt>
      <trkpt lat="42.8475230" lon="13.5712537">
        <ele>1066.6</ele>
        <time>2025-05-18T09:40:07Z</time>
      </trkpt>
      <trkpt lat="42.8475342" lon="13.5711833">
        <ele>1065.4</ele>
        <time>2025-05-18T09:40:16Z</time>
      </trkpt>
      <trkpt lat="42.8475462" lon="13.5711100">
        <ele>1064.1</ele>
        <time>2025-05-18T09:40:25Z</time>
      </trkpt>
      <trkpt lat="42.8475591" lon="13.5710338">
        <ele>1062.9</ele>
        <time>2025-05-18T09:40:35Z</time>
      </trkpt>
      <trkpt lat="42.8475726" lon="13.5709544">
        <ele>1061.6</ele>
        <time>2025-05-18T09:40:45Z</time>
      </trkpt>
      <trkpt lat="42.8475869" lon="13.5708718">
        <ele>1060.3</ele>
        <time>2025-05-18T09:40:55Z</time>
      </trkpt>
      <trkpt lat="42.8476018" lon="13.5707857">
        <ele>1059.0</ele>
        <time>2025-05-18T09:41:05Z</time>
      </trkpt>
      <trkpt lat="42.8476173" lon="13.5706961">
        <ele>1057.7</ele>
        <time>2025-05-18T09:41:15Z</time>
      </trkpt>
      <trkpt lat="42.8476333" lon="13.5706029">
        <ele>1056.4</ele>
        <time>2025-05-18T09:41:26Z</time>
      </trkpt>
      <trkpt lat="42.8476498" lon="13.5705060">
        <ele>1055.0</ele>
        <time>2025-05-18T09:41:37Z</time>
      </trkpt>
      <trkpt lat="42.8476666" lon="13.5704052">
        <ele>1053.6</ele>
        <time>2025-05-18T09:41:48Z</time>
      </trkpt>
      <trkpt lat="42.8476835" lon="13.5703004">
        <ele>1052.3</ele>
        <time>2025-05-18T09:41:59Z</time>
      </trkpt>
      <trkpt lat="42.8477007" lon="13.5701917">
        <ele>1050.9</ele>
        <time>2025-05-18T09:42:11Z</time>
      </trkpt>
      <trkpt lat="42.8477177" lon="13.5700790">
        <ele>1049.4</ele>
        <time>2025-05-18T09:42:23Z</time>
      </trkpt>
      <trkpt lat="42.8477347" lon="13.5699622">
        <ele>1048.0</ele>
        <time>2025-05-18T09:42:35Z</time>
      </trkpt>
      <trkpt lat="42.8477513" lon="13.5698412">
        <ele>1046.6</ele>
        <time>2025-05-18T09:42:48Z</time>
      </trkpt>
      <trkpt lat="42.8477675" lon="13.5697162">
        <ele>1045.1</ele>
        <time>2025-05-18T09:43:00Z</time>
      </trkpt>
      <trkpt lat="42.8477831" lon="13.5695872">
        <ele>1043.6</ele>
        <time>2025-05-18T09:43:13Z</time>
      </trkpt>
      <trkpt lat="42.8477980" lon="13.5694541">
        <ele>1042.1</ele>
        <time>2025-05-18T09:43:26Z</time>
      </trkpt>
      <trkpt lat="42.8478119" lon="13.5693170">
        <ele>1040.6</ele>
        <time>2025-05-18T09:43:40Z</time>
      </trkpt>
      <trkpt lat="42.8478247" lon="13.5691761">
        <ele>1039.0</ele>
        <time>2025-05-18T09:43:53Z</time>
      </trkpt>
      <trkpt lat="42.8478362" lon="13.5690314">
        <ele>1037.4</ele>
        <time>2025-05-18T09:44:07Z</time>
      </trkpt>
      <trkpt lat="42.8478463" lon="13.5688831">
        <ele>1035.8</ele>
        <time>2025-05-18T09:44:21Z</time>
      </trkpt>
      <trkpt lat="42.8478547" lon="13.5687313">
        <ele>1034.2</ele>
        <time>2025-05-18T09:44:35Z</time>
      </trkpt>
      <trkpt lat="42.8478613" lon="13.5685762">
        <ele>1032.6</ele>
        <time>2025-05-18T09:44:50Z</time>
      </trkpt>
      <trkpt lat="42.8478659" lon="13.5684180">
        <ele>1030.9</ele>
        <time>2025-05-18T09:45:04Z</time>
      </trkpt>
      <trkpt lat="42.8478684" lon="13.5682570">
        <ele>1029.2</ele>
        <time>2025-05-18T09:45:19Z</time>
      </trkpt>
      <trkpt lat="42.8478684" lon="13.5680933">
        <ele>1027.5</ele>
        <time>2025-05-18T09:45:34Z</time>
      </trkpt>
      <trkpt lat="42.8478660" lon="13.5679272">
        <ele>1025.8</ele>
        <time>2025-05-18T09:45:49Z</time>
      </trkpt>
      <trkpt lat="42.8478608" lon="13.5677591">
        <ele>1024.0</ele>
        <time>2025-05-18T09:46:04Z</time>
      </trkpt>
      <trkpt lat="42.8478529" lon="13.5675892">
        <ele>1022.2</ele>
        <time>2025-05-18T09:46:20Z</time>
      </trkpt>
      <trkpt lat="42.8478419" lon="13.5674178">
        <ele>1020.4</ele>
        <time>2025-05-18T09:46:35Z</time>
      </trkpt>
      <trkpt lat="42.8478278" lon="13.5672453">
        <ele>1018.6</ele>
        <time>2025-05-18T09:46:51Z</time>
      </trkpt>
      <trkpt lat="42.8478105" lon="13.5670720">
        <ele>1016.7</ele>
        <time>2025-05-18T09:47:07Z</time>
      </trkpt>
      <trkpt lat="42.8477897" lon="13.5668983">
        <ele>1014.8</ele>
        <time>2025-05-18T09:47:22Z</time>
      </trkpt>
      <trkpt lat="42.8477656" lon="13.5667245">
        <ele>1012.9</ele>
        <time>2025-05-18T09:47:38Z</time>
      </trkpt>
      <trkpt lat="42.8477378" lon="13.5665510">
        <ele>1010.9</ele>
        <time>2025-05-18T09:47:54Z</time>
      </trkpt>
      <trkpt lat="42.8477065" lon="13.5663782">
        <ele>1008.9</ele>
        <time>2025-05-18T09:48:10Z</time>
      </trkpt>
      <trkpt lat="42.8476714" lon="13.5662065">
        <ele>1006.9</ele>
        <time>2025-05-18T09:48:26Z</time>
      </trkpt>
      <trkpt lat="42.8476326" lon="13.5660363">
        <ele>1004.8</ele>
        <time>2025-05-18T09:48:42Z</time>
      </trkpt>
      <trkpt lat="42.8475901" lon="13.5658678">
        <ele>1002.7</ele>
        <time>2025-05-18T09:48:57Z</time>
      </trkpt>
      <trkpt lat="42.8475438" lon="13.5657016">
        <ele>1000.6</ele>
        <time>2025-05-18T09:49:13Z</time>
      </trkpt>
      <trkpt lat="42.8474937" lon="13.5655379">
        <ele>998.4</ele>
        <time>2025-05-18T09:49:29Z</time>
      </trkpt>
      <trkpt lat="42.8474398" lon="13.5653770">
        <ele>996.2</ele>
        <time>2025-05-18T09:49:45Z</time>
      </trkpt>
      <trkpt lat="42.8473823" lon="13.5652194">
        <ele>994.0</ele>
        <time>2025-05-18T09:50:01Z</time>
      </trkpt>
      <trkpt lat="42.8473210" lon="13.5650654">
        <ele>991.8</ele>
        <time>2025-05-18T09:50:16Z</time>
      </trkpt>
      <trkpt lat="42.8472562" lon="13.5649151">
        <ele>989.5</ele>
        <time>2025-05-18T09:50:32Z</time>
      </trkpt>
      <trkpt lat="42.8471878" lon="13.5647690">
        <ele>987.1</ele>
        <time>2025-05-18T09:50:47Z</time>
      </trkpt>
      <trkpt lat="42.8471160" lon="13.5646271">
        <ele>984.8</ele>
        <time>2025-05-18T09:51:03Z</time>
      </trkpt>
      <trkpt lat="42.8470409" lon="13.5644899">
        <ele>982.3</ele>
        <time>2025-05-18T09:51:18Z</time>
      </trkpt>
      <trkpt lat="42.8469625" lon="13.5643573">
        <ele>979.9</ele>
        <time>2025-05-18T09:51:34Z</time>
      </trkpt>
      <trkpt lat="42.8468810" lon="13.5642297">
        <ele>977.4</ele>
        <time>2025-05-18T09:51:49Z</time>
      </trkpt>
      <trkpt lat="42.8467966" lon="13.5641070">
        <ele>974.9</ele>
        <time>2025-05-18T09:52:04Z</time>
      </trkpt>
      <trkpt lat="42.8467092" lon="13.5639895">
        <ele>972.3</ele>
        <time>2025-05-18T09:52:20Z</time>
      </trkpt>
      <trkpt lat="42.8466192" lon="13.5638771">
        <ele>969.8</ele>
        <time>2025-05-18T09:52:35Z</time>
      </trkpt>
      <trkpt lat="42.8465266" lon="13.5637699">
        <ele>967.1</ele>
        <time>2025-05-18T09:52:50Z</time>
      </trkpt>
      <trkpt lat="42.8464316" lon="13.5636678">
        <ele>964.5</ele>
        <time>2025-05-18T09:53:05Z</time>
      </trkpt>
      <trkpt lat="42.8463343" lon="13.5635708">
        <ele>961.7</ele>
        <time>2025-05-18T09:53:20Z</time>
      </trkpt>
      <trkpt lat="42.8462349" lon="13.5634787">
        <ele>959.0</ele>
        <time>2025-05-18T09:53:35Z</time>
      </trkpt>
      <trkpt lat="42.8461334" lon="13.5633915">
        <ele>956.2</ele>
        <time>2025-05-18T09:53:50Z</time>
      </trkpt>
      <trkpt lat="42.8460301" lon="13.5633090">
        <ele>953.4</ele>
        <time>2025-05-18T09:54:05Z</time>
      </trkpt>
      <trkpt lat="42.8459250" lon="13.5632309">
        <ele>950.5</ele>
        <time>2025-05-18T09:54:20Z</time>
      </trkpt>
      <trkpt lat="42.8458182" lon="13.5631570">
        <ele>947.6</ele>
        <time>2025-05-18T09:54:35Z</time>
      </trkpt>
      <trkpt lat="42.8457098" lon="13.5630871">
        <ele>944.7</ele>
        <time>2025-05-18T09:54:49Z</time>
      </trkpt>
      <trkpt lat="42.8456000" lon="13.5630208">
        <ele>941.7</ele>
        <time>2025-05-18T09:55:04Z</time>
      </trkpt>
      <trkpt lat="42.8454887" lon="13.5629578">
        <ele>938.7</ele>
        <time>2025-05-18T09:55:19Z</time>
      </trkpt>
      <trkpt lat="42.8453761" lon="13.5628978">
        <ele>935.7</ele>
        <time>2025-05-18T09:55:34Z</time>
      </trkpt>
      <trkpt lat="42.8452622" lon="13.5628403">
        <ele>932.6</ele>
        <time>2025-05-18T09:55:50Z</time>
      </trkpt>
      <trkpt lat="42.8451469" lon="13.5627849">
        <ele>929.5</ele>
        <time>2025-05-18T09:56:05Z</time>
      </trkpt>
      <trkpt lat="42.8450303" lon="13.5627314">
        <ele>926.3</ele>
        <time>2025-05-18T09:56:20Z</time>
      </trkpt>
      <trkpt lat="42.8449123" lon="13.5626791">
        <ele>923.1</ele>
        <time>2025-05-18T09:56:35Z</time>
      </trkpt>
      <trkpt lat="42.8447930" lon="13.5626277">
        <ele>919.9</ele>
        <time>2025-05-18T09:56:51Z</time>
      </trkpt>
      <trkpt lat="42.8446722" lon="13.5625767">
        <ele>916.6</ele>
        <time>2025-05-18T09:57:06Z</time>
      </trkpt>
      <trkpt lat="42.8445498" lon="13.5625257">
        <ele>913.3</ele>
        <time>2025-05-18T09:57:22Z</time>
      </trkpt>
      <trkpt lat="42.8444257" lon="13.5624743">
        <ele>910.0</ele>
        <time>2025-05-18T09:57:38Z</time>
      </trkpt>
      <trkpt lat="42.8442999" lon="13.5624220">
        <ele>906.7</ele>
        <time>2025-05-18T09:57:54Z</time>
      </trkpt>
      <trkpt lat="42.8441721" lon="13.5623684">
        <ele>903.3</ele>
        <time>2025-05-18T09:58:10Z</time>
      </trkpt>
      <trkpt lat="42.8440422" lon="13.5623131">
        <ele>899.8</ele>
        <time>2025-05-18T09:58:26Z</time>
      </trkpt>
      <trkpt lat="42.8439100" lon="13.5622557">
        <ele>896.4</ele>
        <time>2025-05-18T09:58:43Z</time>
      </trkpt>
      <trkpt lat="42.8437752" lon="13.5621958">
        <ele>892.9</ele>
        <time>2025-05-18T09:58:59Z</time>
      </trkpt>
      <trkpt lat="42.8436378" lon="13.5621332">
        <ele>889.4</ele>
        <time>2025-05-18T09:59:16Z</time>
      </trkpt>
      <trkpt lat="42.8434973" lon="13.5620676">
        <ele>885.9</ele>
        <time>2025-05-18T09:59:34Z</time>
      </trkpt>
      <trkpt lat="42.8433537" lon="13.5619986">
        <ele>882.3</ele>
        <time>2025-05-18T09:59:52Z</time>
      </trkpt>
      <trkpt lat="42.8432065" lon="13.5619261">
        <ele>878.7</ele>
        <time>2025-05-18T10:00:10Z</time>
      </trkpt>
      <trkpt lat="42.8430557" lon="13.5618498">
        <ele>875.1</ele>
        <time>2025-05-18T10:00:28Z</time>
      </trkpt>
      <trkpt lat="42.8429008" lon="13.5617698">
        <ele>871.4</ele>
        <time>2025-05-18T10:00:47Z</time>
      </trkpt>
      <trkpt lat="42.8427417" lon="13.5616858">
        <ele>867.8</ele>
        <time>2025-05-18T10:01:06Z</time>
      </trkpt>
      <trkpt lat="42.8425781" lon="13.5615979">
        <ele>864.1</ele>
        <time>2025-05-18T10:01:26Z</time>
      </trkpt>
      <trkpt lat="42.8424097" lon="13.5615061">
        <ele>860.4</ele>
        <time>2025-05-18T10:01:46Z</time>
      </trkpt>
      <trkpt lat="42.8422362" lon="13.5614104">
        <ele>856.6</ele>
        <time>2025-05-18T10:02:07Z</time>
      </trkpt>
      <trkpt lat="42.8420575" lon="13.5613110">
        <ele>852.9</ele>
        <time>2025-05-18T10:02:28Z</time>
      </trkpt>
      <trkpt lat="42.8418733" lon="13.5612081">
        <ele>849.1</ele>
        <time>2025-05-18T10:02:50Z</time>
      </trkpt>
      <trkpt lat="42.8416834" lon="13.5611019">
        <ele>845.3</ele>
        <time>2025-05-18T10:03:12Z</time>
      </trkpt>
      <trkpt lat="42.8414875" lon="13.5609927">
        <ele>841.5</ele>
        <time>2025-05-18T10:03:35Z</time>
      </trkpt>
      <trkpt lat="42.8412856" lon="13.5608809">
        <ele>837.7</ele>
        <time>2025-05-18T10:03:59Z</time>
      </trkpt>
      <trkpt lat="42.8410775" lon="13.5607668">
        <ele>833.9</ele>
        <time>2025-05-18T10:04:22Z</time>
      </trkpt>
      <trkpt lat="42.8408630" lon="13.5606510">
        <ele>830.0</ele>
        <time>2025-05-18T10:04:47Z</time>
      </trkpt>
      <trkpt lat="42.8406421" lon="13.5605340">
        <ele>826.2</ele>
        <time>2025-05-18T10:05:12Z</time>
      </trkpt>
      <trkpt lat="42.8404148" lon="13.5604162">
        <ele>822.3</ele>
        <time>2025-05-18T10:05:38Z</time>
      </trkpt>
      <trkpt lat="42.8401809" lon="13.5602983">
        <ele>818.4</ele>
        <time>2025-05-18T10:06:04Z</time>
      </trkpt>
      <trkpt lat="42.8399406" lon="13.5601809">
        <ele>814.5</ele>
        <time>2025-05-18T10:06:30Z</time>
      </trkpt>
      <trkpt lat="42.8396939" lon="13.5600646">
        <ele>810.6</ele>
        <time>2025-05-18T10:06:57Z</time>
      </trkpt>
      <trkpt lat="42.8394410" lon="13.5599503">
        <ele>806.7</ele>
        <time>2025-05-18T10:07:25Z</time>
      </trkpt>
      <trkpt lat="42.8391818" lon="13.5598385">
        <ele>802.8</ele>
        <time>2025-05-18T10:07:53Z</time>
      </trkpt>
      <trkpt lat="42.8389167" lon="13.5597302">
        <ele>798.9</ele>
        <time>2025-05-18T10:08:21Z</time>
      </trkpt>
      <trkpt lat="42.8386458" lon="13.5596259">
        <ele>795.0</ele>
        <time>2025-05-18T10:08:50Z</time>
      </trkpt>
      <trkpt lat="42.8383695" lon="13.5595265">
        <ele>791.1</ele>
        <time>2025-05-18T10:09:19Z</time>
      </trkpt>
      <trkpt lat="42.8380880" lon="13.5594327">
        <ele>787.2</ele>
        <time>2025-05-18T10:09:49Z</time>
      </trkpt>
      <trkpt lat="42.8378017" lon="13.5593455">
        <ele>783.3</ele>
        <time>2025-05-18T10:10:19Z</time>
      </trkpt>
      <trkpt lat="42.8375109" lon="13.5592654">
        <ele>779.4</ele>
        <time>2025-05-18T10:10:49Z</time>
      </trkpt>
      <trkpt lat="42.8372162" lon="13.5591933">
        <ele>775.5</ele>
        <time>2025-05-18T10:11:19Z</time>
      </trkpt>
      <trkpt lat="42.8369180" lon="13.5591300">
        <ele>771.6</ele>
        <time>2025-05-18T10:11:50Z</time>
      </trkpt>
      <trkpt lat="42.8366168" lon="13.5590761">
        <ele>767.7</ele>
        <time>2025-05-18T10:12:21Z</time>
      </trkpt>
      <trkpt lat="42.8363131" lon="13.5590324">
        <ele>763.8</ele>
        <time>2025-05-18T10:12:51Z</time>
      </trkpt>
      <trkpt lat="42.8360075" lon="13.5589995">
        <ele>759.9</ele>
        <time>2025-05-18T10:13:22Z</time>
      </trkpt>
      <trkpt lat="42.8357005" lon="13.5589781">
        <ele>756.1</ele>
        <time>2025-05-18T10:13:54Z</time>
      </trkpt>
      <trkpt lat="42.8353929" lon="13.5589687">
        <ele>752.2</ele>
        <time>2025-05-18T10:14:25Z</time>
      </trkpt>
      <trkpt lat="42.8350853" lon="13.5589718">
        <ele>748.3</ele>
        <time>2025-05-18T10:14:56Z</time>
      </trkpt>
      <trkpt lat="42.8347782" lon="13.5589880">
        <ele>744.5</ele>
        <time>2025-05-18T10:15:27Z</time>
      </trkpt>
      <trkpt lat="42.8344723" lon="13.5590177">
        <ele>740.7</ele>
        <time>2025-05-18T10:15:58Z</time>
      </trkpt>
      <trkpt lat="42.8341684" lon="13.5590613">
        <ele>736.9</ele>
        <time>2025-05-18T10:16:29Z</time>
      </trkpt>
      <trkpt lat="42.8338671" lon="13.5591189">
        <ele>733.1</ele>
        <time>2025-05-18T10:16:59Z</time>
      </trkpt>
      <trkpt lat="42.8335690" lon="13.5591910">
        <ele>729.3</ele>
        <time>2025-05-18T10:17:30Z</time>
      </trkpt>
      <trkpt lat="42.8332748" lon="13.5592777">
        <ele>725.5</ele>
        <time>2025-05-18T10:18:01Z</time>
      </trkpt>
      <trkpt lat="42.8329851" lon="13.5593791">
        <ele>721.8</ele>
        <time>2025-05-18T10:18:31Z</time>
      </trkpt>
      <trkpt lat="42.8327006" lon="13.5594952">
        <ele>718.1</ele>
        <time>2025-05-18T10:19:01Z</time>
      </trkpt>
      <trkpt lat="42.8324219" lon="13.5596260">
        <ele>714.3</ele>
        <time>2025-05-18T10:19:31Z</time>
      </trkpt>
      <trkpt lat="42.8321495" lon="13.5597714">
        <ele>710.7</ele>
        <time>2025-05-18T10:20:01Z</time>
      </trkpt>
      <trkpt lat="42.8318840" lon="13.5599314">
        <ele>707.0</ele>
        <time>2025-05-18T10:20:31Z</time>
      </trkpt>
      <trkpt lat="42.8316259" lon="13.5601055">
        <ele>703.3</ele>
        <time>2025-05-18T10:21:00Z</time>
      </trkpt>
      <trkpt lat="42.8313756" lon="13.5602937">
        <ele>699.7</ele>
        <time>2025-05-18T10:21:29Z</time>
      </trkpt>
      <trkpt lat="42.8311336" lon="13.5604955">
        <ele>696.1</ele>
        <time>2025-05-18T10:21:58Z</time>
      </trkpt>
      <trkpt lat="42.8309002" lon="13.5607105">
        <ele>692.5</ele>
        <time>2025-05-18T10:22:27Z</time>
      </trkpt>
      <trkpt lat="42.8306757" lon="13.5609383">
        <ele>689.0</ele>
        <time>2025-05-18T10:22:56Z</time>
      </trkpt>
      <trkpt lat="42.8304605" lon="13.5611784">
        <ele>685.5</ele>
        <time>2025-05-18T10:23:24Z</time>
      </trkpt>
      <trkpt lat="42.8302546" lon="13.5614302">
        <ele>682.0</ele>
        <time>2025-05-18T10:23:53Z</time>
      </trkpt>
      <trkpt lat="42.8300583" lon="13.5616932">
        <ele>678.5</ele>
        <time>2025-05-18T10:24:21Z</time>
      </trkpt>
      <trkpt lat="42.8298716" lon="13.5619668">
        <ele>675.0</ele>
        <time>2025-05-18T10:24:49Z</time>
      </trkpt>
      <trkpt lat="42.8296946" lon="13.5622502">
        <ele>671.6</ele>
        <time>2025-05-18T10:25:17Z</time>
      </trkpt>
      <trkpt lat="42.8295271" lon="13.5625429">
        <ele>668.2</ele>
        <time>2025-05-18T10:25:45Z</time>
      </trkpt>
      <trkpt lat="42.8293690" lon="13.5628442">
        <ele>664.9</ele>
        <time>2025-05-18T10:26:13Z</time>
      </trkpt>
      <trkpt lat="42.8292202" lon="13.5631534">
        <ele>661.5</ele>
        <time>2025-05-18T10:26:41Z</time>
      </trkpt>
      <trkpt lat="42.8290805" lon="13.5634698">
        <ele>658.2</ele>
        <time>2025-05-18T10:27:09Z</time>
      </trkpt>
      <trkpt lat="42.8289494" lon="13.5637926">
        <ele>655.0</ele>
        <time>2025-05-18T10:27:37Z</time>
      </trkpt>
      <trkpt lat="42.8288267" lon="13.5641214">
        <ele>651.7</ele>
        <time>2025-05-18T10:28:05Z</time>
      </trkpt>
      <trkpt lat="42.8287119" lon="13.5644553">
        <ele>648.5</ele>
        <time>2025-05-18T10:28:33Z</time>
      </trkpt>
      <trkpt lat="42.8286045" lon="13.5647937">
        <ele>645.3</ele>
        <time>2025-05-18T10:29:01Z</time>
      </trkpt>
      <trkpt lat="42.8285040" lon="13.5651362">
        <ele>642.2</ele>
        <time>2025-05-18T10:29:29Z</time>
      </trkpt>
      <trkpt lat="42.8284097" lon="13.5654820">
        <ele>639.1</ele>
        <time>2025-05-18T10:29:57Z</time>
      </trkpt>
      <trkpt lat="42.8283211" lon="13.5658306">
        <ele>636.0</ele>
        <time>2025-05-18T10:30:24Z</time>
      </trkpt>
      <trkpt lat="42.8282375" lon="13.5661817">
        <ele>632.9</ele>
        <time>2025-05-18T10:30:52Z</time>
      </trkpt>
      <trkpt lat="42.8281581" lon="13.5665346">
        <ele>629.9</ele>
        <time>2025-05-18T10:31:20Z</time>
      </trkpt>
      <trkpt lat="42.8280823" lon="13.5668892">
        <ele>627.0</ele>
        <time>2025-05-18T10:31:48Z</time>
      </trkpt>
      <trkpt lat="42.8280092" lon="13.5672450">
        <ele>624.0</ele>
        <time>2025-05-18T10:32:16Z</time>
      </trkpt>
      <trkpt lat="42.8279381" lon="13.5676018">
        <ele>621.1</ele>
        <time>2025-05-18T10:32:44Z</time>
      </trkpt>
      <trkpt lat="42.8278682" lon="13.5679594">
        <ele>618.3</ele>
        <time>2025-05-18T10:33:12Z</time>
      </trkpt>
      <trkpt lat="42.8277986" lon="13.5683177">
        <ele>615.5</ele>
        <time>2025-05-18T10:33:40Z</time>
      </trkpt>
      <trkpt lat="42.8277287" lon="13.5686766">
        <ele>612.7</ele>
        <time>2025-05-18T10:34:08Z</time>
      </trkpt>
      <trkpt lat="42.8276575" lon="13.5690362">
        <ele>610.0</ele>
        <time>2025-05-18T10:34:36Z</time>
      </trkpt>
      <trkpt lat="42.8275844" lon="13.5693964">
        <ele>607.3</ele>
        <time>2025-05-18T10:35:04Z</time>
      </trkpt>
      <trkpt lat="42.8275086" lon="13.5697575">
        <ele>604.7</ele>
        <time>2025-05-18T10:35:33Z</time>
      </trkpt>
      <trkpt lat="42.8274293" lon="13.5701197">
        <ele>602.1</ele>
        <time>2025-05-18T10:36:01Z</time>
      </trkpt>
      <trkpt lat="42.8273460" lon="13.5704832">
        <ele>599.6</ele>
        <time>2025-05-18T10:36:30Z</time>
      </trkpt>
      <trkpt lat="42.8272579" lon="13.5708484">
        <ele>597.2</ele>
        <time>2025-05-18T10:36:59Z</time>
      </trkpt>
      <trkpt lat="42.8271645" lon="13.5712157">
        <ele>594.8</ele>
        <time>2025-05-18T10:37:28Z</time>
      </trkpt>
      <trkpt lat="42.8270652" lon="13.5715855">
        <ele>592.5</ele>
        <time>2025-05-18T10:37:57Z</time>
      </trkpt>
      <trkpt lat="42.8269595" lon="13.5719582">
        <ele>590.4</ele>
        <time>2025-05-18T10:38:27Z</time>
      </trkpt>
      <trkpt lat="42.8268471" lon="13.5723345">
        <ele>588.3</ele>
        <time>2025-05-18T10:38:58Z</time>
      </trkpt>
      <trkpt lat="42.8267276" lon="13.5727149">
        <ele>586.5</ele>
        <time>2025-05-18T10:39:28Z</time>
      </trkpt>
      <trkpt lat="42.8266007" lon="13.5731000">
        <ele>585.0</ele>
        <time>2025-05-18T10:40:00Z</time>
      </trkpt>
    </trkseg>
  </trk>
</gpx>
